EUTELSAT 174A           
1 28924U 05052A   26115.71572828 -.00000002  00000+0  00000+0 0  9993
2 28924   4.0890  77.1524 0006394 317.3579 250.8620  1.00272406 51800
EUTELSAT 33F            
1 29270U 06032A   26115.94141926  .00000144  00000+0  00000+0 0  9999
2 29270   1.5284  82.7795 0003502 312.0854 191.0992  1.00274070 46780
EUTELSAT HOTBIRD 13C    
1 33459U 08065A   26115.91363951 -.00000294  00000+0  00000+0 0  9999
2 33459   2.8181  79.7794 0004171 319.7218  93.0521  1.00270272 46824
EUTELSAT 36B            
1 36101U 09065A   26115.97246073  .00000099  00000+0  00000+0 0  9990
2 36101   0.3609  79.8312 0005843 313.5024 221.2393  1.00269429 60189
EUTELSAT KA-SAT 9A      
1 37258U 10069A   26115.14103385  .00000035  00000+0  00000+0 0  9997
2 37258   0.0614 354.8384 0005481 190.9529  87.1480  1.00200254 43476
EUTELSAT 7 WEST A       
1 37816U 11051A   26115.92213287 -.00000074  00000+0  00000+0 0  9992
2 37816   0.0805  35.8251 0002493  65.6672  77.0915  1.00271661 53353
EUTELSAT 16A            
1 37836U 11057A   26115.92672623  .00000090  00000+0  00000+0 0  9990
2 37836   0.0535   4.5408 0005733  35.8594 163.1600  1.00270481  6810
EUTELSAT 21B            
1 38992U 12062B   26115.96175205  .00000116  00000+0  00000+0 0  9998
2 38992   0.0707 355.8008 0002932  38.4701 187.5346  1.00270059 49309
EUTELSAT 70B            
1 39020U 12069A   26115.95808405 -.00000057  00000+0  00000+0 0  9997
2 39020   0.0694  16.4292 0005094  15.8514 237.0810  1.00271447 48987
EUTELSAT 117 WEST A     
1 39122U 13012A   26115.90046612 -.00000026  00000+0  00000+0 0  9994
2 39122   0.0194 305.8013 0002561  74.4515  41.0286  1.00270393 47909
EUTELSAT 7B             
1 39163U 13022A   26115.92499288  .00000034  00000+0  00000+0 0  9991
2 39163   0.0752  19.9765 0005905 357.5106 176.4297  1.00271213 47421
EXPRESS-AT1             
1 39612U 14010A   26115.93504626  .00000051  00000+0  00000+0 0  9991
2 39612   0.1234  84.1127 0001748  17.8197 146.2271  1.00288514 44290
EXPRESS-AT2             
1 39613U 14010B   26115.97623172  .00000000  00000+0  00000+0 0  9998
2 39613   0.0116 224.4142 0000553 126.3103 270.7034  1.00274742 43973
EUTELSAT 3B             
1 39773U 14030A   26115.92421288  .00000006  00000+0  00000+0 0  9992
2 39773   0.0700  17.1287 0003982  13.7461 158.8684  1.00272502 43543
EUTELSAT 115 WEST B     
1 40425U 15010B   26115.90081280 -.00000038  00000+0  00000+0 0  9995
2 40425   0.0110 104.0464 0000056 218.4714 100.7985  1.00269170 40860
EUTELSAT 8 WEST B       
1 40875U 15039B   26115.70812660 -.00000080  00000+0  00000+0 0  9994
2 40875   0.0691 355.3347 0003948  40.4735  64.8400  1.00271411 39134
EUTELSAT 9B             
1 41310U 16005A   26115.92542622  .00000048  00000+0  00000+0 0  9998
2 41310   0.0733  71.9885 0003445 285.9156 198.1752  1.00272977 37596
