[{"OBJECT_NAME":"EUTELSAT 174A","OBJECT_ID":"2005-052A","EPOCH":"2026-04-25T17:10:38.923392","MEAN_MOTION":1.00272406,"ECCENTRICITY":0.00063945,"INCLINATION":4.089,"RA_OF_ASC_NODE":77.1524,"ARG_OF_PERICENTER":317.3579,"MEAN_ANOMALY":250.862,"EPHEMERIS_TYPE":0,"CLASSIFICATION_TYPE":"U","NORAD_CAT_ID":28924,"ELEMENT_SET_NO":999,"REV_AT_EPOCH":5180,"BSTAR":0,"MEAN_MOTION_DOT":-2.0e-8,"MEAN_MOTION_DDOT":0},{"OBJECT_NAME":"EUTELSAT 33F","OBJECT_ID":"2006-032A","EPOCH":"2026-04-25T22:35:38.624064","MEAN_MOTION":1.0027407,"ECCENTRICITY":0.00035026,"INCLINATION":1.5284,"RA_OF_ASC_NODE":82.7795,"ARG_OF_PERICENTER":312.0854,"MEAN_ANOMALY":191.0992,"EPHEMERIS_TYPE":0,"CLASSIFICATION_TYPE":"U","NORAD_CAT_ID":29270,"ELEMENT_SET_NO":999,"REV_AT_EPOCH":4678,"BSTAR":0,"MEAN_MOTION_DOT":1.44e-6,"MEAN_MOTION_DDOT":0},{"OBJECT_NAME":"EUTELSAT HOTBIRD 13C","OBJECT_ID":"2008-065A","EPOCH":"2026-04-25T21:55:38.453664","MEAN_MOTION":1.00270272,"ECCENTRICITY":0.00041715,"INCLINATION":2.8181,"RA_OF_ASC_NODE":79.7794,"ARG_OF_PERICENTER":319.7218,"MEAN_ANOMALY":93.0521,"EPHEMERIS_TYPE":0,"CLASSIFICATION_TYPE":"U","NORAD_CAT_ID":33459,"ELEMENT_SET_NO":999,"REV_AT_EPOCH":4682,"BSTAR":0,"MEAN_MOTION_DOT":-2.94e-6,"MEAN_MOTION_DDOT":0},{"OBJECT_NAME":"EUTELSAT 36B","OBJECT_ID":"2009-065A","EPOCH":"2026-04-25T23:20:20.607072","MEAN_MOTION":1.00269429,"ECCENTRICITY":0.00058432,"INCLINATION":0.3609,"RA_OF_ASC_NODE":79.8312,"ARG_OF_PERICENTER":313.5024,"MEAN_ANOMALY":221.2393,"EPHEMERIS_TYPE":0,"CLASSIFICATION_TYPE":"U","NORAD_CAT_ID":36101,"ELEMENT_SET_NO":999,"REV_AT_EPOCH":6018,"BSTAR":0,"MEAN_MOTION_DOT":9.9e-7,"MEAN_MOTION_DDOT":0},{"OBJECT_NAME":"EUTELSAT KA-SAT 9A","OBJECT_ID":"2010-069A","EPOCH":"2026-04-25T03:23:05.324640","MEAN_MOTION":1.00200254,"ECCENTRICITY":0.00054811,"INCLINATION":0.0614,"RA_OF_ASC_NODE":354.8384,"ARG_OF_PERICENTER":190.9529,"MEAN_ANOMALY":87.148,"EPHEMERIS_TYPE":0,"CLASSIFICATION_TYPE":"U","NORAD_CAT_ID":37258,"ELEMENT_SET_NO":999,"REV_AT_EPOCH":4347,"BSTAR":0,"MEAN_MOTION_DOT":3.5e-7,"MEAN_MOTION_DDOT":0},{"OBJECT_NAME":"EUTELSAT 7 WEST A","OBJECT_ID":"2011-051A","EPOCH":"2026-04-25T22:07:52.279968","MEAN_MOTION":1.00271661,"ECCENTRICITY":0.00024931,"INCLINATION":0.0805,"RA_OF_ASC_NODE":35.8251,"ARG_OF_PERICENTER":65.6672,"MEAN_ANOMALY":77.0915,"EPHEMERIS_TYPE":0,"CLASSIFICATION_TYPE":"U","NORAD_CAT_ID":37816,"ELEMENT_SET_NO":999,"REV_AT_EPOCH":5335,"BSTAR":0,"MEAN_MOTION_DOT":-7.4e-7,"MEAN_MOTION_DDOT":0},{"OBJECT_NAME":"EUTELSAT 16A","OBJECT_ID":"2011-057A","EPOCH":"2026-04-25T22:14:29.146272","MEAN_MOTION":1.00270481,"ECCENTRICITY":0.00057334,"INCLINATION":0.0535,"RA_OF_ASC_NODE":4.5408,"ARG_OF_PERICENTER":35.8594,"MEAN_ANOMALY":163.16,"EPHEMERIS_TYPE":0,"CLASSIFICATION_TYPE":"U","NORAD_CAT_ID":37836,"ELEMENT_SET_NO":999,"REV_AT_EPOCH":681,"BSTAR":0,"MEAN_MOTION_DOT":9.0e-7,"MEAN_MOTION_DDOT":0},{"OBJECT_NAME":"EUTELSAT 21B","OBJECT_ID":"2012-062B","EPOCH":"2026-04-25T23:04:55.377120","MEAN_MOTION":1.00270059,"ECCENTRICITY":0.00029321,"INCLINATION":0.0707,"RA_OF_ASC_NODE":355.8008,"ARG_OF_PERICENTER":38.4701,"MEAN_ANOMALY":187.5346,"EPHEMERIS_TYPE":0,"CLASSIFICATION_TYPE":"U","NORAD_CAT_ID":38992,"ELEMENT_SET_NO":999,"REV_AT_EPOCH":4930,"BSTAR":0,"MEAN_MOTION_DOT":1.16e-6,"MEAN_MOTION_DDOT":0},{"OBJECT_NAME":"EUTELSAT 70B","OBJECT_ID":"2012-069A","EPOCH":"2026-04-25T22:59:38.461920","MEAN_MOTION":1.00271447,"ECCENTRICITY":0.00050943,"INCLINATION":0.0694,"RA_OF_ASC_NODE":16.4292,"ARG_OF_PERICENTER":15.8514,"MEAN_ANOMALY":237.081,"EPHEMERIS_TYPE":0,"CLASSIFICATION_TYPE":"U","NORAD_CAT_ID":39020,"ELEMENT_SET_NO":999,"REV_AT_EPOCH":4898,"BSTAR":0,"MEAN_MOTION_DOT":-5.7e-7,"MEAN_MOTION_DDOT":0},{"OBJECT_NAME":"EUTELSAT 117 WEST A","OBJECT_ID":"2013-012A","EPOCH":"2026-04-25T21:36:40.272768","MEAN_MOTION":1.00270393,"ECCENTRICITY":0.00025615,"INCLINATION":0.0194,"RA_OF_ASC_NODE":305.8013,"ARG_OF_PERICENTER":74.4515,"MEAN_ANOMALY":41.0286,"EPHEMERIS_TYPE":0,"CLASSIFICATION_TYPE":"U","NORAD_CAT_ID":39122,"ELEMENT_SET_NO":999,"REV_AT_EPOCH":4790,"BSTAR":0,"MEAN_MOTION_DOT":-2.6e-7,"MEAN_MOTION_DDOT":0},{"OBJECT_NAME":"EUTELSAT 7B","OBJECT_ID":"2013-022A","EPOCH":"2026-04-25T22:11:59.384832","MEAN_MOTION":1.00271213,"ECCENTRICITY":0.00059052,"INCLINATION":0.0752,"RA_OF_ASC_NODE":19.9765,"ARG_OF_PERICENTER":357.5106,"MEAN_ANOMALY":176.4297,"EPHEMERIS_TYPE":0,"CLASSIFICATION_TYPE":"U","NORAD_CAT_ID":39163,"ELEMENT_SET_NO":999,"REV_AT_EPOCH":4742,"BSTAR":0,"MEAN_MOTION_DOT":3.4e-7,"MEAN_MOTION_DDOT":0},{"OBJECT_NAME":"EXPRESS-AT1","OBJECT_ID":"2014-010A","EPOCH":"2026-04-25T22:26:27.996864","MEAN_MOTION":1.00288514,"ECCENTRICITY":0.00017487,"INCLINATION":0.1234,"RA_OF_ASC_NODE":84.1127,"ARG_OF_PERICENTER":17.8197,"MEAN_ANOMALY":146.2271,"EPHEMERIS_TYPE":0,"CLASSIFICATION_TYPE":"U","NORAD_CAT_ID":39612,"ELEMENT_SET_NO":999,"REV_AT_EPOCH":4429,"BSTAR":0,"MEAN_MOTION_DOT":5.1e-7,"MEAN_MOTION_DDOT":0},{"OBJECT_NAME":"EXPRESS-AT2","OBJECT_ID":"2014-010B","EPOCH":"2026-04-25T23:25:46.420608","MEAN_MOTION":1.00274742,"ECCENTRICITY":5.537e-5,"INCLINATION":0.0116,"RA_OF_ASC_NODE":224.4142,"ARG_OF_PERICENTER":126.3103,"MEAN_ANOMALY":270.7034,"EPHEMERIS_TYPE":0,"CLASSIFICATION_TYPE":"U","NORAD_CAT_ID":39613,"ELEMENT_SET_NO":999,"REV_AT_EPOCH":4397,"BSTAR":0,"MEAN_MOTION_DOT":0,"MEAN_MOTION_DDOT":0},{"OBJECT_NAME":"EUTELSAT 3B","OBJECT_ID":"2014-030A","EPOCH":"2026-04-25T22:10:51.992832","MEAN_MOTION":1.00272502,"ECCENTRICITY":0.00039828,"INCLINATION":0.07,"RA_OF_ASC_NODE":17.1287,"ARG_OF_PERICENTER":13.7461,"MEAN_ANOMALY":158.8684,"EPHEMERIS_TYPE":0,"CLASSIFICATION_TYPE":"U","NORAD_CAT_ID":39773,"ELEMENT_SET_NO":999,"REV_AT_EPOCH":4354,"BSTAR":0,"MEAN_MOTION_DOT":6.0e-8,"MEAN_MOTION_DDOT":0},{"OBJECT_NAME":"EUTELSAT 115 WEST B","OBJECT_ID":"2015-010B","EPOCH":"2026-04-25T21:37:10.225920","MEAN_MOTION":1.0026917,"ECCENTRICITY":5.65e-6,"INCLINATION":0.011,"RA_OF_ASC_NODE":104.0464,"ARG_OF_PERICENTER":218.4714,"MEAN_ANOMALY":100.7985,"EPHEMERIS_TYPE":0,"CLASSIFICATION_TYPE":"U","NORAD_CAT_ID":40425,"ELEMENT_SET_NO":999,"REV_AT_EPOCH":4086,"BSTAR":0,"MEAN_MOTION_DOT":-3.8e-7,"MEAN_MOTION_DDOT":0},{"OBJECT_NAME":"EUTELSAT 8 WEST B","OBJECT_ID":"2015-039B","EPOCH":"2026-04-25T16:59:42.138240","MEAN_MOTION":1.00271411,"ECCENTRICITY":0.0003948,"INCLINATION":0.0691,"RA_OF_ASC_NODE":355.3347,"ARG_OF_PERICENTER":40.4735,"MEAN_ANOMALY":64.84,"EPHEMERIS_TYPE":0,"CLASSIFICATION_TYPE":"U","NORAD_CAT_ID":40875,"ELEMENT_SET_NO":999,"REV_AT_EPOCH":3913,"BSTAR":0,"MEAN_MOTION_DOT":-8.0e-7,"MEAN_MOTION_DDOT":0},{"OBJECT_NAME":"EUTELSAT 9B","OBJECT_ID":"2016-005A","EPOCH":"2026-04-25T22:12:36.825408","MEAN_MOTION":1.00272977,"ECCENTRICITY":0.00034458,"INCLINATION":0.0733,"RA_OF_ASC_NODE":71.9885,"ARG_OF_PERICENTER":285.9156,"MEAN_ANOMALY":198.1752,"EPHEMERIS_TYPE":0,"CLASSIFICATION_TYPE":"U","NORAD_CAT_ID":41310,"ELEMENT_SET_NO":999,"REV_AT_EPOCH":3759,"BSTAR":0,"MEAN_MOTION_DOT":4.8e-7,"MEAN_MOTION_DDOT":0}]
